[{"OBJECT_NAME":"STARLINK-34928","OBJECT_ID":"2025-175X","EPOCH":"2026-03-09T14:47:24.405216","MEAN_MOTION":15.05647683,"ECCENTRICITY":0.0001825,"INCLINATION":97.6015,"RA_OF_ASC_NODE":302.6523,"ARG_OF_PERICENTER":69.2169,"MEAN_ANOMALY":290.9254,"EPHEMERIS_TYPE":0,"CLASSIFICATION_TYPE":"U","NORAD_CAT_ID":65195,"ELEMENT_SET_NO":999,"REV_AT_EPOCH":3263,"BSTAR":0.00016214,"MEAN_MOTION_DOT":2.279e-5,"MEAN_MOTION_DDOT":0},{"OBJECT_NAME":"NAXING 1","OBJECT_ID":"2004-012B","EPOCH":"2026-03-09T22:31:20.183520","MEAN_MOTION":15.05443462,"ECCENTRICITY":0.00121665,"INCLINATION":98.0152,"RA_OF_ASC_NODE":92.9199,"ARG_OF_PERICENTER":69.4128,"MEAN_ANOMALY":290.8402,"EPHEMERIS_TYPE":0,"CLASSIFICATION_TYPE":"U","NORAD_CAT_ID":28221,"ELEMENT_SET_NO":999,"REV_AT_EPOCH":19231,"BSTAR":0.00025838798,"MEAN_MOTION_DOT":3.649e-5,"MEAN_MOTION_DDOT":0}]
